STARLINK-31053          
1 58549U 23192U   26069.16109168  .00000579  00000+0  31683-4 0  9998
2 58549  53.1607  60.8233 0001387  96.1678 263.9481 15.30188278126053
STARLINK-31056          
1 58550U 23192V   26069.11887433  .00001543  00000+0  64236-4 0  9995
2 58550  53.1609  60.5635 0001308  94.2934 265.8216 15.30194025126051
STARLINK-30999          
1 58551U 23192W   26069.20958965  .00001954  00000+0  78096-4 0  9990
2 58551  53.1608  50.3583 0001414  85.4532 274.6630 15.30192792126208
STARLINK-31046          
1 58552U 23192X   26069.16847683  .00000895  00000+0  42338-4 0  9993
2 58552  53.1615  60.8703 0001334  89.7449 270.3704 15.30189739126057
HONGHU 2                
1 58555U 23193C   26069.17027543  .00116022  00000+0  49611-2 0  9992
2 58555  97.2779  62.5813 0039952 263.4223  96.2465 15.21617713 86949
YAOGAN-39 05A           
1 58557U 23194A   26067.87191563  .00015822  00000+0  65636-3 0  9996
2 58557  35.0016 328.2574 0004592 131.0582 229.0530 15.23021204125052
YAOGAN-39 05B           
1 58558U 23194B   26069.20879524  .00008123  00000+0  40655-3 0  9996
2 58558  34.9937 338.1713 0009313 158.1441 201.9670 15.16660956125057
YAOGAN-39 05C           
1 58559U 23194C   26069.14810463  .00007856  00000+0  39242-3 0  9999
2 58559  34.9932 338.5922 0013951 235.4298 124.5098 15.16685999125071
ALISIO-1                
1 58562U 23185M   26069.15995100  .00005153  00000+0  26941-3 0  9996
2 58562  97.5439 143.0724 0004950 305.4596  54.6174 15.16302155123547
INTUITION-1             
1 58565U 23174CW  26068.71739560  .00503884  10671-3  12305-2 0  9995
2 58565  97.3704 165.1390 0003502 248.0192 112.0712 15.96180302130881
QPS-SAR-5 (TSUKUYOMI-I) 
1 58578U 23196A   26069.04415513  .00017310  00000+0  78705-3 0  9991
2 58578  42.0101 219.5187 0025048 333.2193  26.7346 15.20134294123149
YAOGAN-41               
1 58582U 23197A   26069.02897477 -.00000359  00000+0  00000+0 0  9993
2 58582   3.3128 311.6611 0010872 179.6541 170.0566  1.00272676  8326
ARKTIKA-M 2             
1 58584U 23198A   26064.07652728  .00000150  00000+0  00000+0 0  9992
2 58584  63.2186 165.9003 6877723 267.7621  18.8474  2.00612038 16239
STARLINK-31044          
1 58589U 23200A   26069.16668981  .00057481  00000+0  21392-2 0  9993
2 58589  42.9992 166.0573 0000958 237.5017 162.7681 15.26689685  5762
STARLINK-31062          
1 58590U 23200B   26069.16668981  .02311029  00000+0  10669+0 0  9990
2 58590  42.9995 168.8794 0001848 261.6526  33.7849 15.15942804  5827
STARLINK-31096          
1 58592U 23200D   26068.29383499  .00044809  00000+0  18692-2 0  9997
2 58592  43.0024 171.6597 0002152 311.2907  48.7758 15.22976409123542
STARLINK-31094          
1 58593U 23200E   26069.14530089  .00001450  00000+0  63724-4 0  9995
2 58593  43.0006 166.0175 0001483 266.9666  93.1016 15.26735994123689
STARLINK-31075          
1 58594U 23200F   26068.99538673 -.00000161  00000+0  36951-5 0  9997
2 58594  43.0018 166.6042 0001476 261.1452  98.9232 15.26736681123669
STARLINK-30857          
1 58595U 23200G   26069.00003471 -.00018651  00000+0 -68705-3 0  9998
2 58595  42.9995 166.9894 0001488 257.8745 317.2603 15.26755729  5796
STARLINK-31059          
1 58596U 23200H   26069.16438601 -.00000475  00000+0 -77438-5 0  9993
2 58596  43.0047   9.4478 0001245 274.9477  85.1232 15.27584635125529
STARLINK-31087          
1 58597U 23200J   26067.67929479  .00001444  00000+0  63485-4 0  9997
2 58597  42.9986 173.9308 0000913 268.8991  91.1755 15.26741848123359
STARLINK-31079          
1 58598U 23200K   26069.16668981  .00191391  00000+0  46847-2 0  9994
2 58598  42.9845 137.7937 0026780  32.0065  57.9289 15.38965658  5859
STARLINK-31052          
1 58600U 23200M   26068.34764651  .00004470  00000+0  17619-3 0  9995
2 58600  43.0019 170.3452 0001587 237.1277 122.9422 15.26746351123569
STARLINK-31074          
1 58601U 23200N   26069.00003471 -.00019308  00000+0 -71165-3 0  9990
2 58601  43.0004 166.7981 0001216 272.5879  21.7765 15.26756200  5749
STARLINK-31071          
1 58602U 23200P   26069.16871999 -.00001608  00000+0 -48917-4 0  9990
2 58602  43.0028   5.9750 0001031 263.9378  96.1356 15.27579096125569
STARLINK-31080          
1 58603U 23200Q   26069.00003471 -.00008975  00000+0 -32540-3 0  9994
2 58603  43.0008 166.5893 0001309 264.7896 113.1411 15.26732600  5797
STARLINK-31088          
1 58604U 23200R   26069.00003471 -.00018399  00000+0 -67747-3 0  9993
2 58604  43.0003 166.8068 0001096 268.1145  15.6210 15.26763421  5741
STARLINK-31038          
1 58605U 23200S   26069.16668981  .00049274  00000+0  18303-2 0  9991
2 58605  42.9995 165.9685 0001277 277.6414 165.8795 15.26813895  5826
STARLINK-31082          
1 58606U 23200T   26069.00003471 -.00020177  00000+0 -74418-3 0  9995
2 58606  43.0006 166.7675 0001510 262.6186  43.7306 15.26756104  5797
STARLINK-31069          
1 58607U 23200U   26069.16668981  .00066393  00000+0  24643-2 0  9998
2 58607  42.9993 166.0262 0001619 254.0898 164.8012 15.26716568  5677
STARLINK-31067          
1 58608U 23200V   26069.16668981  .00062801  00000+0  23327-2 0  9997
2 58608  42.9994 166.0043 0001428 262.9485 164.9802 15.26715792  5669
STARLINK-31085          
1 58609U 23200W   26069.16668981  .00055968  00000+0  20814-2 0  9992
2 58609  42.9989 166.1559 0001067 259.0366 103.6915 15.26724459  5813
STARLINK-31089          
1 58610U 23200X   26068.31469296  .00000526  00000+0  29279-4 0  9994
2 58610  43.0021 170.8996 0001177 274.4243  85.6473 15.26736652123556
STARLINK-31061          
1 58611U 23200Y   26069.16668981  .01519122  00000+0  52469-1 0  9993
2 58611  42.9995 166.2921 0001538 268.2989  36.2960 15.26218665  5776
COSMOS 2573             
1 58614U 23201A   26069.20381056  .00005895  00000+0  24562-3 0  9998
2 58614  97.6177  16.9241 0002558  58.3671 301.7815 15.24113601123405
STARLINK-31054          
1 58619U 23203B   26069.04229894 -.00001602  00000+0 -48714-4 0  9998
2 58619  43.0039  65.2461 0000770 263.4706  96.6058 15.27579731123610
STARLINK-31134          
1 58621U 23203D   26069.06413772 -.00003597  00000+0 -12117-3 0  9995
2 58621  43.0030  65.4050 0001444 266.7248  93.3439 15.27595131123615
STARLINK-31133          
1 58622U 23203E   26069.03844656 -.00000712  00000+0 -16370-4 0  9994
2 58622  43.0015  65.2131 0000795 222.7127 137.3663 15.27568554123610
STARLINK-31068          
1 58623U 23203F   26069.03459066 -.00000547  00000+0 -10375-4 0  9997
2 58623  43.0043  65.1848 0001036 270.6512  89.4221 15.27571965123612
STARLINK-31129          
1 58624U 23203G   26069.03203744  .00023563  00000+0  86164-3 0  9997
2 58624  43.0024  65.1656 0000417 247.3386 112.7422 15.27633349123619
STARLINK-30774          
1 58625U 23203H   26069.02816584 -.00001013  00000+0 -27298-4 0  9991
2 58625  43.0030  65.1367 0001008 272.9626  87.1110 15.27573145123610
STARLINK-31086          
1 58626U 23203J   26069.00246472  .00000160  00000+0  15342-4 0  9990
2 58626  43.0008  64.9433 0000916 239.8345 120.2416 15.27570485123616
STARLINK-31065          
1 58627U 23203K   26069.01403804 -.00001453  00000+0 -43318-4 0  9998
2 58627  42.9994  65.0404 0000696 260.3123  99.7650 15.27564767123613
STARLINK-31092          
1 58628U 23203L   26069.02430734  .00004308  00000+0  16601-3 0  9996
2 58628  43.0011  65.1047 0000816 244.9969 115.0798 15.27570900123611
STARLINK-31091          
1 58629U 23203M   26069.04694927  .00000194  00000+0  16551-4 0  9999
2 58629  43.0017  68.7136 0000711 232.6074 127.4713 15.27570786123572
STARLINK-31084          
1 58630U 23203N   26069.04309494  .00001461  00000+0  62637-4 0  9997
2 58630  43.0075  68.6889 0002009 290.0496  70.0139 15.27575576123577
STARLINK-31064          
1 58631U 23203P   26069.05851821  .00005294  00000+0  20179-3 0  9997
2 58631  43.0069  68.8032 0001420 285.3677  74.7018 15.27577524124749
STARLINK-31081          
1 58632U 23203Q   26069.03410254 -.00002308  00000+0 -74401-4 0  9990
2 58632  42.9999  68.6186 0000327 116.4131 243.6754 15.27576093124803
STARLINK-31022          
1 58633U 23203R   26069.00083642  .00000227  00000+0  17764-4 0  9990
2 58633  43.0028  69.2257 0001282 244.6270 115.4449 15.27576443124798
STARLINK-31025          
1 58634U 23203S   26069.00759047 -.00001174  00000+0 -33158-4 0  9999
2 58634  43.0000  64.9055 0000465 263.8557  96.2241 15.27574625124842
STARLINK-31018          
1 58635U 23203T   26069.05386201  .00003359  00000+0  13166-3 0  9994
2 58635  43.0037  65.3335 0001578 268.2803  91.7867 15.27552369124843
STARLINK-31008          
1 58636U 23203U   26069.05643284  .00000080  00000+0  12433-4 0  9997
2 58636  43.0036  65.3527 0001187 241.5661 118.5071 15.27572427124840
STARLINK-31077          
1 58637U 23203V   26069.05001381 -.00000500  00000+0 -86522-5 0  9994
2 58637  43.0056  65.3066 0001460 280.8836  79.1851 15.27571228124841
STARLINK-31078          
1 58638U 23203W   26069.04615572 -.00001336  00000+0 -39047-4 0  9994
2 58638  43.0050  65.2752 0001323 265.5707  94.4994 15.27578967123611
STARLINK-31070          
1 58639U 23203X   26069.06028784 -.00000557  00000+0 -10728-4 0  9999
2 58639  43.0028  65.3781 0000803 235.3690 124.7086 15.27572878123612
STARLINK-31090          
1 58640U 23203Y   26069.03798277 -.00000365  00000+0 -37186-5 0  9994
2 58640  43.0040  57.4301 0001506 275.8273  84.2407 15.27571811123719
TIANMU-1 11             
1 58645U 23205A   26069.19956623  .00008235  00000+0  32370-3 0  9999
2 58645  97.3550  92.3420 0008931   6.6216 353.5138 15.25890665122427
TIANMU-1 12             
1 58646U 23205B   26069.23201368  .00007522  00000+0  29674-3 0  9995
2 58646  97.3538  92.1527 0006707 352.2581   7.8553 15.25816428122418
TIANMU-1 13             
1 58647U 23205C   26069.19731537  .00007951  00000+0  31308-3 0  9990
2 58647  97.3566  92.3576 0006380 331.1916  28.8970 15.25865420122402
